[{"OBJECT_NAME":"ONEWEB-0674","OBJECT_ID":"2023-029AP","EPOCH":"2025-12-04T11:18:39.341088","MEAN_MOTION":13.14503578,"ECCENTRICITY":0.0002096,"INCLINATION":87.8979,"RA_OF_ASC_NODE":328.5271,"ARG_OF_PERICENTER":98.6516,"MEAN_ANOMALY":261.4851,"EPHEMERIS_TYPE":0,"CLASSIFICATION_TYPE":"U","NORAD_CAT_ID":55833,"ELEMENT_SET_NO":999,"REV_AT_EPOCH":13383,"BSTAR":-0.00051902,"MEAN_MOTION_DOT":-1.8e-6,"MEAN_MOTION_DDOT":0},{"OBJECT_NAME":"ONEWEB-0675","OBJECT_ID":"2023-029AQ","EPOCH":"2025-12-04T14:03:09.590688","MEAN_MOTION":13.19723586,"ECCENTRICITY":0.0001579,"INCLINATION":87.9189,"RA_OF_ASC_NODE":343.7106,"ARG_OF_PERICENTER":83.4057,"MEAN_ANOMALY":276.7255,"EPHEMERIS_TYPE":0,"CLASSIFICATION_TYPE":"U","NORAD_CAT_ID":55834,"ELEMENT_SET_NO":999,"REV_AT_EPOCH":13325,"BSTAR":0.00014575,"MEAN_MOTION_DOT":7.1e-7,"MEAN_MOTION_DDOT":0},{"OBJECT_NAME":"ONEWEB-0720","OBJECT_ID":"2023-029AR","EPOCH":"2025-12-04T13:51:47.435040","MEAN_MOTION":13.19724059,"ECCENTRICITY":0.000212,"INCLINATION":87.919,"RA_OF_ASC_NODE":343.7102,"ARG_OF_PERICENTER":84.924,"MEAN_ANOMALY":275.2134,"EPHEMERIS_TYPE":0,"CLASSIFICATION_TYPE":"U","NORAD_CAT_ID":55835,"ELEMENT_SET_NO":999,"REV_AT_EPOCH":13317,"BSTAR":0.00014666,"MEAN_MOTION_DOT":7.2e-7,"MEAN_MOTION_DDOT":0},{"OBJECT_NAME":"ONEWEB-0537","OBJECT_ID":"2023-043A","EPOCH":"2025-12-04T13:35:35.769408","MEAN_MOTION":13.16594542,"ECCENTRICITY":0.0001527,"INCLINATION":87.9042,"RA_OF_ASC_NODE":267.5245,"ARG_OF_PERICENTER":71.3183,"MEAN_ANOMALY":288.8113,"EPHEMERIS_TYPE":0,"CLASSIFICATION_TYPE":"U","NORAD_CAT_ID":56046,"ELEMENT_SET_NO":999,"REV_AT_EPOCH":13335,"BSTAR":0.00040486,"MEAN_MOTION_DOT":1.68e-6,"MEAN_MOTION_DDOT":0},{"OBJECT_NAME":"ONEWEB-0538","OBJECT_ID":"2023-043B","EPOCH":"2025-12-04T07:58:09.952032","MEAN_MOTION":13.1659477,"ECCENTRICITY":0.000177,"INCLINATION":87.9037,"RA_OF_ASC_NODE":267.5758,"ARG_OF_PERICENTER":64.633,"MEAN_ANOMALY":295.4984,"EPHEMERIS_TYPE":0,"CLASSIFICATION_TYPE":"U","NORAD_CAT_ID":56047,"ELEMENT_SET_NO":999,"REV_AT_EPOCH":13333,"BSTAR":0.00026785,"MEAN_MOTION_DOT":1.15e-6,"MEAN_MOTION_DDOT":0},{"OBJECT_NAME":"ONEWEB-0546","OBJECT_ID":"2023-043C","EPOCH":"2025-12-04T13:08:14.732736","MEAN_MOTION":13.16594923,"ECCENTRICITY":0.0001047,"INCLINATION":87.9049,"RA_OF_ASC_NODE":267.5235,"ARG_OF_PERICENTER":69.8848,"MEAN_ANOMALY":290.2395,"EPHEMERIS_TYPE":0,"CLASSIFICATION_TYPE":"U","NORAD_CAT_ID":56048,"ELEMENT_SET_NO":999,"REV_AT_EPOCH":13335,"BSTAR":0.00017087,"MEAN_MOTION_DOT":7.8e-7,"MEAN_MOTION_DDOT":0},{"OBJECT_NAME":"ONEWEB-0547","OBJECT_ID":"2023-043D","EPOCH":"2025-12-04T13:23:08.780928","MEAN_MOTION":13.21824892,"ECCENTRICITY":0.0001892,"INCLINATION":87.9209,"RA_OF_ASC_NODE":282.7929,"ARG_OF_PERICENTER":74.3362,"MEAN_ANOMALY":285.798,"EPHEMERIS_TYPE":0,"CLASSIFICATION_TYPE":"U","NORAD_CAT_ID":56049,"ELEMENT_SET_NO":999,"REV_AT_EPOCH":13251,"BSTAR":0.00042011,"MEAN_MOTION_DOT":1.87e-6,"MEAN_MOTION_DDOT":0},{"OBJECT_NAME":"ONEWEB-0548","OBJECT_ID":"2023-043E","EPOCH":"2025-12-04T13:43:33.366144","MEAN_MOTION":13.16593071,"ECCENTRICITY":0.0001902,"INCLINATION":87.9032,"RA_OF_ASC_NODE":267.5268,"ARG_OF_PERICENTER":89.4158,"MEAN_ANOMALY":270.7191,"EPHEMERIS_TYPE":0,"CLASSIFICATION_TYPE":"U","NORAD_CAT_ID":56050,"ELEMENT_SET_NO":999,"REV_AT_EPOCH":13335,"BSTAR":0.00036608,"MEAN_MOTION_DOT":1.53e-6,"MEAN_MOTION_DDOT":0},{"OBJECT_NAME":"ONEWEB-0549","OBJECT_ID":"2023-043F","EPOCH":"2025-12-04T09:34:28.587072","MEAN_MOTION":13.21824453,"ECCENTRICITY":0.0001972,"INCLINATION":87.9206,"RA_OF_ASC_NODE":282.839,"ARG_OF_PERICENTER":71.5236,"MEAN_ANOMALY":288.6112,"EPHEMERIS_TYPE":0,"CLASSIFICATION_TYPE":"U","NORAD_CAT_ID":56051,"ELEMENT_SET_NO":999,"REV_AT_EPOCH":13249,"BSTAR":4.7897e-5,"MEAN_MOTION_DOT":3.3e-7,"MEAN_MOTION_DDOT":0},{"OBJECT_NAME":"ONEWEB-0550","OBJECT_ID":"2023-043G","EPOCH":"2025-12-04T14:42:30.379968","MEAN_MOTION":13.21831738,"ECCENTRICITY":0.0001997,"INCLINATION":87.921,"RA_OF_ASC_NODE":282.7913,"ARG_OF_PERICENTER":73.1561,"MEAN_ANOMALY":286.9791,"EPHEMERIS_TYPE":0,"CLASSIFICATION_TYPE":"U","NORAD_CAT_ID":56052,"ELEMENT_SET_NO":999,"REV_AT_EPOCH":13252,"BSTAR":-0.0043403,"MEAN_MOTION_DOT":-1.779e-5,"MEAN_MOTION_DDOT":0},{"OBJECT_NAME":"ONEWEB-0551","OBJECT_ID":"2023-043H","EPOCH":"2025-12-04T14:24:51.178176","MEAN_MOTION":13.15549089,"ECCENTRICITY":0.000199,"INCLINATION":87.8982,"RA_OF_ASC_NODE":298.0611,"ARG_OF_PERICENTER":76.8736,"MEAN_ANOMALY":283.2616,"EPHEMERIS_TYPE":0,"CLASSIFICATION_TYPE":"U","NORAD_CAT_ID":56053,"ELEMENT_SET_NO":999,"REV_AT_EPOCH":13081,"BSTAR":3.692e-5,"MEAN_MOTION_DOT":2.7e-7,"MEAN_MOTION_DDOT":0},{"OBJECT_NAME":"ONEWEB-0552","OBJECT_ID":"2023-043J","EPOCH":"2025-12-04T07:19:24.825216","MEAN_MOTION":13.21825668,"ECCENTRICITY":0.00021,"INCLINATION":87.9207,"RA_OF_ASC_NODE":282.8614,"ARG_OF_PERICENTER":78.0754,"MEAN_ANOMALY":282.0615,"EPHEMERIS_TYPE":0,"CLASSIFICATION_TYPE":"U","NORAD_CAT_ID":56054,"ELEMENT_SET_NO":999,"REV_AT_EPOCH":13248,"BSTAR":0.00013402,"MEAN_MOTION_DOT":6.8e-7,"MEAN_MOTION_DDOT":0},{"OBJECT_NAME":"ONEWEB-0553","OBJECT_ID":"2023-043K","EPOCH":"2025-12-04T13:17:20.903424","MEAN_MOTION":13.16594506,"ECCENTRICITY":0.0001399,"INCLINATION":87.904,"RA_OF_ASC_NODE":267.5304,"ARG_OF_PERICENTER":78.0929,"MEAN_ANOMALY":282.0359,"EPHEMERIS_TYPE":0,"CLASSIFICATION_TYPE":"U","NORAD_CAT_ID":56055,"ELEMENT_SET_NO":999,"REV_AT_EPOCH":13336,"BSTAR":0.00014446,"MEAN_MOTION_DOT":6.8e-7,"MEAN_MOTION_DDOT":0},{"OBJECT_NAME":"ONEWEB-0554","OBJECT_ID":"2023-043L","EPOCH":"2025-12-04T07:30:48.150720","MEAN_MOTION":13.16595571,"ECCENTRICITY":0.0001752,"INCLINATION":87.9025,"RA_OF_ASC_NODE":267.5935,"ARG_OF_PERICENTER":84.2392,"MEAN_ANOMALY":275.8939,"EPHEMERIS_TYPE":0,"CLASSIFICATION_TYPE":"U","NORAD_CAT_ID":56056,"ELEMENT_SET_NO":999,"REV_AT_EPOCH":13331,"BSTAR":0.00016514,"MEAN_MOTION_DOT":7.6e-7,"MEAN_MOTION_DDOT":0},{"OBJECT_NAME":"ONEWEB-0555","OBJECT_ID":"2023-043M","EPOCH":"2025-12-04T12:04:23.863008","MEAN_MOTION":13.16594544,"ECCENTRICITY":0.0001183,"INCLINATION":87.904,"RA_OF_ASC_NODE":267.5355,"ARG_OF_PERICENTER":76.7452,"MEAN_ANOMALY":283.3811,"EPHEMERIS_TYPE":0,"CLASSIFICATION_TYPE":"U","NORAD_CAT_ID":56057,"ELEMENT_SET_NO":999,"REV_AT_EPOCH":13334,"BSTAR":0.00022304,"MEAN_MOTION_DOT":9.8e-7,"MEAN_MOTION_DDOT":0},{"OBJECT_NAME":"ONEWEB-0557","OBJECT_ID":"2023-043N","EPOCH":"2025-12-04T12:24:54.637056","MEAN_MOTION":13.16595702,"ECCENTRICITY":0.0001606,"INCLINATION":87.9036,"RA_OF_ASC_NODE":267.546,"ARG_OF_PERICENTER":120.5246,"MEAN_ANOMALY":239.6044,"EPHEMERIS_TYPE":0,"CLASSIFICATION_TYPE":"U","NORAD_CAT_ID":56058,"ELEMENT_SET_NO":999,"REV_AT_EPOCH":13334,"BSTAR":8.0649e-5,"MEAN_MOTION_DOT":4.4e-7,"MEAN_MOTION_DDOT":0},{"OBJECT_NAME":"ONEWEB-0558","OBJECT_ID":"2023-043P","EPOCH":"2025-12-04T08:58:55.071264","MEAN_MOTION":13.21825904,"ECCENTRICITY":0.0002093,"INCLINATION":87.9207,"RA_OF_ASC_NODE":282.8412,"ARG_OF_PERICENTER":64.9827,"MEAN_ANOMALY":295.1524,"EPHEMERIS_TYPE":0,"CLASSIFICATION_TYPE":"U","NORAD_CAT_ID":56059,"ELEMENT_SET_NO":999,"REV_AT_EPOCH":13250,"BSTAR":-9.137e-5,"MEAN_MOTION_DOT":-2.5e-7,"MEAN_MOTION_DDOT":0},{"OBJECT_NAME":"ONEWEB-0559","OBJECT_ID":"2023-043Q","EPOCH":"2025-12-04T08:42:20.882016","MEAN_MOTION":13.21826523,"ECCENTRICITY":0.00021,"INCLINATION":87.9209,"RA_OF_ASC_NODE":282.8367,"ARG_OF_PERICENTER":75.8014,"MEAN_ANOMALY":284.3353,"EPHEMERIS_TYPE":0,"CLASSIFICATION_TYPE":"U","NORAD_CAT_ID":56060,"ELEMENT_SET_NO":999,"REV_AT_EPOCH":13251,"BSTAR":0.00012994,"MEAN_MOTION_DOT":6.7e-7,"MEAN_MOTION_DDOT":0},{"OBJECT_NAME":"ONEWEB-0566","OBJECT_ID":"2023-043R","EPOCH":"2025-12-04T13:59:51.573984","MEAN_MOTION":13.21824364,"ECCENTRICITY":0.0002037,"INCLINATION":87.9209,"RA_OF_ASC_NODE":282.7907,"ARG_OF_PERICENTER":71.5115,"MEAN_ANOMALY":288.624,"EPHEMERIS_TYPE":0,"CLASSIFICATION_TYPE":"U","NORAD_CAT_ID":56061,"ELEMENT_SET_NO":999,"REV_AT_EPOCH":13252,"BSTAR":0.0003099,"MEAN_MOTION_DOT":1.41e-6,"MEAN_MOTION_DDOT":0},{"OBJECT_NAME":"ONEWEB-0568","OBJECT_ID":"2023-043S","EPOCH":"2025-12-04T12:49:59.584224","MEAN_MOTION":13.16594432,"ECCENTRICITY":0.0001478,"INCLINATION":87.9043,"RA_OF_ASC_NODE":267.5292,"ARG_OF_PERICENTER":75.2063,"MEAN_ANOMALY":284.9232,"EPHEMERIS_TYPE":0,"CLASSIFICATION_TYPE":"U","NORAD_CAT_ID":56062,"ELEMENT_SET_NO":999,"REV_AT_EPOCH":13336,"BSTAR":6.4739e-5,"MEAN_MOTION_DOT":3.8e-7,"MEAN_MOTION_DDOT":0},{"OBJECT_NAME":"ONEWEB-0574","OBJECT_ID":"2023-043T","EPOCH":"2025-12-04T13:50:23.862048","MEAN_MOTION":13.21824188,"ECCENTRICITY":0.0001787,"INCLINATION":87.9207,"RA_OF_ASC_NODE":282.78,"ARG_OF_PERICENTER":83.9339,"MEAN_ANOMALY":276.1998,"EPHEMERIS_TYPE":0,"CLASSIFICATION_TYPE":"U","NORAD_CAT_ID":56063,"ELEMENT_SET_NO":999,"REV_AT_EPOCH":13256,"BSTAR":0.00037845,"MEAN_MOTION_DOT":1.69e-6,"MEAN_MOTION_DDOT":0},{"OBJECT_NAME":"ONEWEB-0575","OBJECT_ID":"2023-043U","EPOCH":"2025-12-04T12:40:52.610016","MEAN_MOTION":13.16594893,"ECCENTRICITY":0.0001576,"INCLINATION":87.9039,"RA_OF_ASC_NODE":267.531,"ARG_OF_PERICENTER":88.7366,"MEAN_ANOMALY":271.3945,"EPHEMERIS_TYPE":0,"CLASSIFICATION_TYPE":"U","NORAD_CAT_ID":56064,"ELEMENT_SET_NO":999,"REV_AT_EPOCH":13335,"BSTAR":7.92e-6,"MEAN_MOTION_DOT":1.6e-7,"MEAN_MOTION_DDOT":0},{"OBJECT_NAME":"ONEWEB-0576","OBJECT_ID":"2023-043V","EPOCH":"2025-12-04T12:13:30.565920","MEAN_MOTION":13.16593839,"ECCENTRICITY":0.0001646,"INCLINATION":87.9043,"RA_OF_ASC_NODE":267.5352,"ARG_OF_PERICENTER":82.3334,"MEAN_ANOMALY":277.7984,"EPHEMERIS_TYPE":0,"CLASSIFICATION_TYPE":"U","NORAD_CAT_ID":56065,"ELEMENT_SET_NO":999,"REV_AT_EPOCH":13334,"BSTAR":0.00016842,"MEAN_MOTION_DOT":7.7e-7,"MEAN_MOTION_DDOT":0},{"OBJECT_NAME":"ONEWEB-0577","OBJECT_ID":"2023-043W","EPOCH":"2025-12-04T12:22:37.655040","MEAN_MOTION":13.16594557,"ECCENTRICITY":0.0001849,"INCLINATION":87.9043,"RA_OF_ASC_NODE":267.5334,"ARG_OF_PERICENTER":100.9774,"MEAN_ANOMALY":259.1565,"EPHEMERIS_TYPE":0,"CLASSIFICATION_TYPE":"U","NORAD_CAT_ID":56066,"ELEMENT_SET_NO":999,"REV_AT_EPOCH":13337,"BSTAR":4.932e-5,"MEAN_MOTION_DOT":3.2e-7,"MEAN_MOTION_DDOT":0}]
